NORAD_CAT_ID,OBJECT_NAME,OBJECT_TYPE,EPOCH,MEAN_MOTION,ECCENTRICITY,INCLINATION,RA_OF_ASC_NODE,ARG_OF_PERICENTER,MEAN_ANOMALY,BSTAR,MEAN_MOTION_DOT,MEAN_MOTION_DDOT,TLE_LINE0,TLE_LINE1,TLE_LINE2,SEMIMAJOR_AXIS,PERIOD,APOGEE,PERIGEE,DECAYED
51147.0,STARLINK-3352,PAYLOAD,2022-11-05 14:44:06,15.08821788,0.0001228,53.2169,26.2669,62.8701,297.2416,-0.0002906,-4.907e-05,0.0,0 STARLINK-3352,1 51147U 22005AV  22309.61396652 -.00004907  00000-0 -29060-3 0  9993,2 51147  53.2169  26.2669 0001228  62.8701 297.2416 15.08821788 45529,6917.936,95.439,540.651,538.952,0.0
51147.0,STARLINK-3352,PAYLOAD,2022-11-06 11:24:06,15.08836957,0.0002028,53.2176,22.4035,40.44300000000001,319.6713,-0.00010444,-1.95e-05,0.0,0 STARLINK-3352,1 51147U 22005AV  22310.47507986 -.00001950  00000-0 -10444-3 0  9994,2 51147  53.2176  22.4035 0002028  40.4430 319.6713 15.08836957 45659,6917.89,95.438,541.158,538.352,0.0
51147.0,STARLINK-3352,PAYLOAD,2022-11-07 11:14:53,15.0883191,0.0001878,53.2175,17.9409,46.8672,313.2477,0.00016865,2.396e-05,0.0,0 STARLINK-3352,1 51147U 22005AV  22311.46867822  .00002396  00000-0  16865-3 0  9998,2 51147  53.2175  17.9409 0001878  46.8672 313.2477 15.08831910 44685,6917.905,95.438,541.069,538.471,0.0
51147.0,STARLINK-3352,PAYLOAD,2022-11-07 23:57:59,15.08831472,0.0002119,53.2175,15.5639,44.0438,316.0722,0.00024276,3.577e-05,0.0,0 STARLINK-3352,1 51147U 22005AV  22311.99860166  .00003577  00000-0  24276-3 0  9997,2 51147  53.2175  15.5639 0002119  44.0438 316.0722 15.08831472 45883,6917.906,95.438,541.237,538.306,0.0
51147.0,STARLINK-3352,PAYLOAD,2022-11-08 06:19:31,15.08842774,0.0002145,53.2173,14.374,45.1702,314.9464,0.00021336,3.109e-05,0.0,0 STARLINK-3352,1 51147U 22005AV  22312.26355428  .00003109  00000-0  21336-3 0  9993,2 51147  53.2173  14.3740 0002145  45.1702 314.9464 15.08842774 45928,6917.871999999999,95.437,541.221,538.253,0.0
51147.0,STARLINK-3352,PAYLOAD,2022-11-08 09:30:17,15.08843567,0.0002082,53.2174,13.7784,43.0733,317.0421,0.00024167,3.5600000000000005e-05,0.0,0 STARLINK-3352,1 51147U 22005AV  22312.39603338  .00003560  00000-0  24167-3 0  9999,2 51147  53.2174  13.7784 0002082  43.0733 317.0421 15.08843567 44827,6917.869000000002,95.437,541.175,538.294,0.0
51147.0,STARLINK-3352,PAYLOAD,2022-11-08 14:16:26,15.08854859,0.000177,53.2179,12.8863,57.1247,302.9915,0.00023086,3.389e-05,0.0,0 STARLINK-3352,1 51147U 22005AV  22312.59474538  .00003389  00000-0  23086-3 0  9997,2 51147  53.2179  12.8863 0001770  57.1247 302.9915 15.08854859 45973,6917.835,95.437,540.924,538.476,0.0
51147.0,STARLINK-3352,PAYLOAD,2022-11-09 01:24:06,15.08877528,0.0002013,53.2174,10.8068,43.3998,316.7152,0.00015192,2.133e-05,0.0,0 STARLINK-3352,1 51147U 22005AV  22313.05840760  .00002133  00000-0  15192-3 0  9998,2 51147  53.2174  10.8068 0002013  43.3998 316.7152 15.08877528 46047,6917.766,95.435,541.023,538.238,0.0
51147.0,STARLINK-3352,PAYLOAD,2022-11-09 09:21:03,15.08849841,0.000226,53.2184,9.3207,32.7209,327.3923,2.7695e-05,1.53e-06,0.0,0 STARLINK-3352,1 51147U 22005AV  22313.38962232  .00000153  00000-0  27695-4 0  9995,2 51147  53.2184   9.3207 0002260  32.7209 327.3923 15.08849841 44978,6917.85,95.437,541.279,538.1519999999998,0.0
51147.0,STARLINK-3352,PAYLOAD,2022-11-09 20:28:48,15.08810165,0.000208,53.2173,7.237,36.2162,323.8971,-0.00030059,-5.065e-05,0.0,0 STARLINK-3352,1 51147U 22005AV  22313.85333981 -.00005065  00000-0 -30059-3 0  9996,2 51147  53.2173   7.2370 0002080  36.2162 323.8971 15.08810165 45041,6917.972,95.439,541.276,538.398,0.0
51147.0,STARLINK-3352,PAYLOAD,2022-11-09 23:39:34,15.08816712,0.0001829,53.2167,6.6401,35.2489,324.8624,-0.00035424,-5.918e-05,0.0,0 STARLINK-3352,1 51147U 22005AV  22313.98581873 -.00005918  00000-0 -35424-3 0  9993,2 51147  53.2167   6.6401 0001829  35.2489 324.8624 15.08816712 46189,6917.9519999999975,95.439,541.082,538.5509999999998,0.0
51147.0,STARLINK-3352,PAYLOAD,2022-11-10 10:47:16,15.08827791,0.0001967,53.2178,4.5621,31.0111,329.0997,-0.00024206,-4.137e-05,0.0,0 STARLINK-3352,1 51147U 22005AV  22314.44949263 -.00004137  00000-0 -24206-3 0  9994,2 51147  53.2178   4.5621 0001967  31.0111 329.0997 15.08827791 45134,6917.918000000002,95.438,541.143,538.422,0.0
51147.0,STARLINK-3352,PAYLOAD,2022-11-11 12:13:26,15.08831583,0.0001804,53.2173,359.80300000000005,41.8725,318.2405,-6.8032e-05,-1.3699999999999998e-05,0.0,0 STARLINK-3352,1 51147U 22005AV  22315.50933262 -.00001370  00000-0 -68032-4 0  9996,2 51147  53.2173 359.8030 0001804  41.8725 318.2405 15.08831583 46419,6917.906,95.438,541.019,538.523,0.0
51147.0,STARLINK-3352,PAYLOAD,2022-11-11 20:10:21,15.08827045,0.0001865,53.2168,358.3155,27.7474,332.3617,0.00048462,7.43e-05,0.0,0 STARLINK-3352,1 51147U 22005AV  22315.84052968  .00007430  00000-0  48462-3 0  9993,2 51147  53.2168 358.3155 0001865  27.7474 332.3617 15.08827045 45347,6917.92,95.438,541.075,538.495,0.0
51147.0,STARLINK-3352,PAYLOAD,2022-11-12 02:31:54,15.08836729,0.0001877,53.2175,357.1272,35.091,325.0206,0.00039783,6.049e-05,0.0,0 STARLINK-3352,1 51147U 22005AV  22316.10548937  .00006049  00000-0  39783-3 0  9990,2 51147  53.2175 357.1272 0001877  35.0910 325.0206 15.08836729 46503,6917.89,95.438,541.054,538.457,0.0
51147.0,STARLINK-3352,PAYLOAD,2022-11-12 10:28:50,15.08843375,0.0002025,53.2166,355.6418,34.5845,325.5278,0.00045621,6.981e-05,0.0,0 STARLINK-3352,1 51147U 22005AV  22316.43669444  .00006981  00000-0  45621-3 0  9996,2 51147  53.2166 355.6418 0002025  34.5845 325.5278 15.08843375 45435,6917.87,95.437,541.136,538.3340000000002,0.0
51147.0,STARLINK-3352,PAYLOAD,2022-11-13 08:44:13,15.08847968,0.0002136,53.216,351.4773,34.8131,325.3001,0.00013537,1.867e-05,0.0,0 STARLINK-3352,1 51147U 22005AV  22317.36404662  .00001867  00000-0  13537-3 0  9997,2 51147  53.2160 351.4773 0002136  34.8131 325.3001 15.08847968 46694,6917.856,95.437,541.1990000000002,538.243,0.0
51147.0,STARLINK-3352,PAYLOAD,2022-11-14 08:35:01,15.0883527,0.0002033,53.2179,347.0166,34.1298,325.9825,-0.00012612,-2.295e-05,0.0,0 STARLINK-3352,1 51147U 22005AV  22318.35765900 -.00002295  00000-0 -12612-3 0  9993,2 51147  53.2179 347.0166 0002033  34.1298 325.9825 15.08835270 46844,6917.895,95.438,541.1659999999998,538.3530000000002,0.0
51147.0,STARLINK-3352,PAYLOAD,2022-11-14 21:18:06,15.08845019,0.0002049,53.2173,344.63800000000015,36.8384,323.2749,-8.6541e-05,-1.666e-05,0.0,0 STARLINK-3352,1 51147U 22005AV  22318.88757105 -.00001666  00000-0 -86541-4 0  9993,2 51147  53.2173 344.6380 0002049  36.8384 323.2749 15.08845019 46928,6917.865,95.437,541.148,538.313,0.0
51147.0,STARLINK-3352,PAYLOAD,2022-11-15 08:25:47,15.08845732,0.0002278,53.217,342.5567,34.9146,325.1995,3.1644000000000004e-05,2.15e-06,0.0,0 STARLINK-3352,1 51147U 22005AV  22319.35124676  .00000215  00000-0  31644-4 0  9998,2 51147  53.2170 342.5567 0002278  34.9146 325.1995 15.08845732 45877,6917.863,95.437,541.304,538.1519999999998,0.0
51147.0,STARLINK-3352,PAYLOAD,2022-11-16 01:55:02,15.08837544,0.0002245,53.2172,339.2851,39.1812,320.9342,0.00010158,1.329e-05,0.0,0 STARLINK-3352,1 51147U 22005AV  22320.07989346  .00001329  00000-0  10158-3 0  9995,2 51147  53.2172 339.2851 0002245  39.1812 320.9342 15.08837544 47108,6917.888000000001,95.438,541.306,538.2,0.0
51147.0,STARLINK-3352,PAYLOAD,2022-11-16 08:16:34,15.08845596,0.0002631,53.2168,338.0957,31.9805,328.1347,0.00015531,2.185e-05,0.0,0 STARLINK-3352,1 51147U 22005AV  22320.34484800  .00002185  00000-0  15531-3 0  9991,2 51147  53.2168 338.0957 0002631  31.9805 328.1347 15.08845596 46029,6917.863,95.437,541.548,537.908,0.0
51147.0,STARLINK-3352,PAYLOAD,2022-11-16 17:48:54,15.08839921,0.0002333,53.2171,336.3123,40.8983,319.2184,0.00013909,1.926e-05,0.0,0 STARLINK-3352,1 51147U 22005AV  22320.74229292  .00001926  00000-0  13909-3 0  9996,2 51147  53.2171 336.3123 0002333  40.8983 319.2184 15.08839921 46085,6917.880999999999,95.438,541.36,538.132,0.0
51147.0,STARLINK-3352,PAYLOAD,2022-11-17 06:31:58,15.08849827,0.0002316,53.2168,333.9325,42.1012,318.0158,0.00013619,1.88e-05,0.0,0 STARLINK-3352,1 51147U 22005AV  22321.27220713  .00001880  00000-0  13619-3 0  9991,2 51147  53.2168 333.9325 0002316  42.1012 318.0158 15.08849827 47284,6917.85,95.437,541.318,538.113,0.0
51147.0,STARLINK-3352,PAYLOAD,2022-11-17 08:07:21,15.08848038,0.0002358,53.2161,333.6354,40.7955,319.3214,9.1927e-05,1.175e-05,0.0,0 STARLINK-3352,1 51147U 22005AV  22321.33844707  .00001175  00000-0  91927-4 0  9999,2 51147  53.2161 333.6354 0002358  40.7955 319.3214 15.08848038 46179,6917.856,95.437,541.352,538.09,0.0
51147.0,STARLINK-3352,PAYLOAD,2022-11-17 17:39:41,15.08837396,0.0002675,53.2164,331.85,42.0196,318.1001,3.3528e-05,2.45e-06,0.0,0 STARLINK-3352,1 51147U 22005AV  22321.73589289  .00000245  00000-0  33528-4 0  9994,2 51147  53.2164 331.8500 0002675  42.0196 318.1001 15.08837396 47356,6917.888000000001,95.438,541.604,537.903,0.0
51147.0,STARLINK-3352,PAYLOAD,2022-11-18 09:33:32,15.08836891,0.0002105,53.2175,328.875,35.2418,324.8713,-4.572e-05,-1.016e-05,0.0,0 STARLINK-3352,1 51147U 22005AV  22322.39829675 -.00001016  00000-0 -45720-4 0  9999,2 51147  53.2175 328.8750 0002105  35.2418 324.8713 15.08836891 46330,6917.89,95.438,541.211,538.299,0.0
51147.0,STARLINK-3352,PAYLOAD,2022-11-19 01:27:24,15.08839034,0.0002307,53.2165,325.9034,39.6382,320.4779,3.7024e-05,3.01e-06,0.0,0 STARLINK-3352,1 51147U 22005AV  22323.06069687  .00000301  00000-0  37024-4 0  9995,2 51147  53.2165 325.9034 0002307  39.6382 320.4779 15.08839034 47555,6917.8830000000025,95.438,541.344,538.1519999999998,0.0
51147.0,STARLINK-3352,PAYLOAD,2022-11-19 17:21:14,15.08847111,0.0002535,53.2168,322.9283,38.7531,321.3642,0.00018912,2.723e-05,0.0,0 STARLINK-3352,1 51147U 22005AV  22323.72308981  .00002723  00000-0  18912-3 0  9995,2 51147  53.2168 322.9283 0002535  38.7531 321.3642 15.08847111 47655,6917.859,95.437,541.477,537.97,0.0
